start=new Date('2022-07-03T00:00:00.000Z').valueOf();
sats=[{"SEMIMAJOR_AXIS":"6925.332","REF_FRAME":"TEME","CLASSIFICATION_TYPE":"U","DECAY_DATE":null,"INCLINATION":"53.0538","TLE_LINE2":"2 47862  53.0538 183.8561 0001558  63.0237 297.0911 15.06405262 72981","MEAN_MOTION_DOT":"0.00002205","EPOCH":"2022-07-02T17:38:17.756736","PERIAPSIS":"546.118","OBJECT_TYPE":"PAYLOAD","COUNTRY_CODE":"US","GP_ID":"207273628","PERIOD":"95.592","SITE":"AFETR","TIME_SYSTEM":"UTC","EPHEMERIS_TYPE":"0","OBJECT_ID":"2021-021C","OBJECT_NAME":"STARLINK-2291","NORAD_CAT_ID":"47862","RCS_SIZE":"LARGE","FILE":"3506788","REV_AT_EPOCH":"7298","RA_OF_ASC_NODE":"183.8561","ECCENTRICITY":"0.00015580","ELEMENT_SET_NO":"999","CENTER_NAME":"EARTH","BSTAR":"0.00016687000000","TLE_LINE1":"1 47862U 21021C   22183.73492774  .00002205  00000-0  16687-3 0  9992","MEAN_ANOMALY":"297.0911","ARG_OF_PERICENTER":"63.0237","MEAN_MOTION":"15.06405262","LAUNCH_DATE":"2021-03-14","MEAN_ELEMENT_THEORY":"SGP4","APOAPSIS":"548.276","MEAN_MOTION_DDOT":"0.0000000000000"},{"RCS_SIZE":"LARGE","NORAD_CAT_ID":"47863","OBJECT_NAME":"STARLINK-2293","CENTER_NAME":"EARTH","ELEMENT_SET_NO":"999","ECCENTRICITY":"0.00015710","REV_AT_EPOCH":"7326","FILE":"3506647","RA_OF_ASC_NODE":"195.8328","BSTAR":"0.00014991000000","ARG_OF_PERICENTER":"62.8982","MEAN_ANOMALY":"297.2167","TLE_LINE1":"1 47863U 21021D   22183.29538270  .00001952  00000-0  14991-3 0  9990","LAUNCH_DATE":"2021-03-14","MEAN_ELEMENT_THEORY":"SGP4","MEAN_MOTION":"15.06395688","APOAPSIS":"548.315","MEAN_MOTION_DDOT":"0.0000000000000","REF_FRAME":"TEME","CLASSIFICATION_TYPE":"U","SEMIMAJOR_AXIS":"6925.362","INCLINATION":"53.0537","DECAY_DATE":null,"PERIAPSIS":"546.139","EPOCH":"2022-07-02T07:05:21.065280","MEAN_MOTION_DOT":"0.00001952","TLE_LINE2":"2 47863  53.0537 195.8328 0001571  62.8982 297.2167 15.06395688 73261","OBJECT_TYPE":"PAYLOAD","PERIOD":"95.592","GP_ID":"207267208","COUNTRY_CODE":"US","TIME_SYSTEM":"UTC","SITE":"AFETR","OBJECT_ID":"2021-021D","EPHEMERIS_TYPE":"0"},{"OBJECT_TYPE":"PAYLOAD","TLE_LINE2":"2 47864  53.0537 185.9632 0001837  60.8991 299.2182 15.06399513 73375","MEAN_MOTION_DOT":"0.00000647","EPOCH":"2022-07-02T06:34:49.412064","PERIAPSIS":"545.943","DECAY_DATE":null,"INCLINATION":"53.0537","SEMIMAJOR_AXIS":"6925.350","CLASSIFICATION_TYPE":"U","REF_FRAME":"TEME","OBJECT_ID":"2021-021E","EPHEMERIS_TYPE":"0","SITE":"AFETR","TIME_SYSTEM":"UTC","COUNTRY_CODE":"US","GP_ID":"207265957","PERIOD":"95.592","BSTAR":"0.00006233900000","REV_AT_EPOCH":"7337","FILE":"3506647","RA_OF_ASC_NODE":"185.9632","ELEMENT_SET_NO":"999","CENTER_NAME":"EARTH","ECCENTRICITY":"0.00018370","OBJECT_NAME":"STARLINK-2304","NORAD_CAT_ID":"47864","RCS_SIZE":"LARGE","MEAN_MOTION_DDOT":"0.0000000000000","APOAPSIS":"548.487","MEAN_MOTION":"15.06399513","MEAN_ELEMENT_THEORY":"SGP4","LAUNCH_DATE":"2021-03-14","TLE_LINE1":"1 47864U 21021E   22183.27418301  .00000647  00000-0  62339-4 0  9991","MEAN_ANOMALY":"299.2182","ARG_OF_PERICENTER":"60.8991"},{"BSTAR":"0.00008471500000","RA_OF_ASC_NODE":"193.2473","FILE":"3506789","REV_AT_EPOCH":"7287","CENTER_NAME":"EARTH","ELEMENT_SET_NO":"999","ECCENTRICITY":"0.00016230","OBJECT_NAME":"STARLINK-2310","NORAD_CAT_ID":"47865","RCS_SIZE":"LARGE","MEAN_MOTION_DDOT":"0.0000000000000","APOAPSIS":"548.351","MEAN_MOTION":"15.06395567","LAUNCH_DATE":"2021-03-14","MEAN_ELEMENT_THEORY":"SGP4","MEAN_ANOMALY":"294.4044","TLE_LINE1":"1 47865U 21021F   22183.86575624  .00000980  00000-0  84715-4 0  9991","ARG_OF_PERICENTER":"65.7114","OBJECT_TYPE":"PAYLOAD","EPOCH":"2022-07-02T20:46:41.339136","MEAN_MOTION_DOT":"0.00000980","TLE_LINE2":"2 47865  53.0547 193.2473 0001623  65.7114 294.4044 15.06395567 72879","PERIAPSIS":"546.103","DECAY_DATE":null,"INCLINATION":"53.0547","REF_FRAME":"TEME","CLASSIFICATION_TYPE":"U","SEMIMAJOR_AXIS":"6925.362","OBJECT_ID":"2021-021F","EPHEMERIS_TYPE":"0","SITE":"AFETR","TIME_SYSTEM":"UTC","GP_ID":"207273642","COUNTRY_CODE":"US","PERIOD":"95.592"},{"APOAPSIS":"548.523","MEAN_MOTION_DDOT":"0.0000000000000","LAUNCH_DATE":"2021-03-14","MEAN_ELEMENT_THEORY":"SGP4","MEAN_MOTION":"15.06396692","ARG_OF_PERICENTER":"54.9981","MEAN_ANOMALY":"305.1184","TLE_LINE1":"1 47866U 21021G   22183.73769478  .00000815  00000-0  73628-4 0  9998","BSTAR":"0.00007362800000","ELEMENT_SET_NO":"999","ECCENTRICITY":"0.00018760","CENTER_NAME":"EARTH","FILE":"3506790","RA_OF_ASC_NODE":"193.8450","REV_AT_EPOCH":"7285","RCS_SIZE":"LARGE","NORAD_CAT_ID":"47866","OBJECT_NAME":"STARLINK-2320","OBJECT_ID":"2021-021G","EPHEMERIS_TYPE":"0","TIME_SYSTEM":"UTC","SITE":"AFETR","PERIOD":"95.592","COUNTRY_CODE":"US","GP_ID":"207273657","OBJECT_TYPE":"PAYLOAD","PERIAPSIS":"545.924","MEAN_MOTION_DOT":"0.00000815","EPOCH":"2022-07-02T17:42:16.828992","TLE_LINE2":"2 47866  53.0529 193.8450 0001876  54.9981 305.1184 15.06396692 72856","INCLINATION":"53.0529","DECAY_DATE":null,"REF_FRAME":"TEME","CLASSIFICATION_TYPE":"U","SEMIMAJOR_AXIS":"6925.359"},{"GP_ID":"207267708","COUNTRY_CODE":"US","PERIOD":"95.592","SITE":"AFETR","TIME_SYSTEM":"UTC","EPHEMERIS_TYPE":"0","OBJECT_ID":"2021-021H","SEMIMAJOR_AXIS":"6925.360","CLASSIFICATION_TYPE":"U","REF_FRAME":"TEME","DECAY_DATE":null,"INCLINATION":"53.0544","TLE_LINE2":"2 47867  53.0544 185.3547 0001785  59.4722 300.6443 15.06396328 73371","EPOCH":"2022-07-02T09:35:17.879136","MEAN_MOTION_DOT":"0.00002294","PERIAPSIS":"545.989","OBJECT_TYPE":"PAYLOAD","TLE_LINE1":"1 47867U 21021H   22183.39951249  .00002294  00000-0  17287-3 0  9991","MEAN_ANOMALY":"300.6443","ARG_OF_PERICENTER":"59.4722","MEAN_MOTION":"15.06396328","MEAN_ELEMENT_THEORY":"SGP4","LAUNCH_DATE":"2021-03-14","APOAPSIS":"548.461","MEAN_MOTION_DDOT":"0.0000000000000","OBJECT_NAME":"STARLINK-2321","NORAD_CAT_ID":"47867","RCS_SIZE":"LARGE","RA_OF_ASC_NODE":"185.3547","FILE":"3506647","REV_AT_EPOCH":"7337","ECCENTRICITY":"0.00017850","ELEMENT_SET_NO":"999","CENTER_NAME":"EARTH","BSTAR":"0.00017287000000"},{"COUNTRY_CODE":"US","GP_ID":"207274015","PERIOD":"95.592","SITE":"AFETR","TIME_SYSTEM":"UTC","EPHEMERIS_TYPE":"0","OBJECT_ID":"2021-021J","SEMIMAJOR_AXIS":"6925.341","CLASSIFICATION_TYPE":"U","REF_FRAME":"TEME","DECAY_DATE":null,"INCLINATION":"53.0563","TLE_LINE2":"2 47868  53.0563 133.3042 0001703  66.3893 293.7275 15.06402504 73719","MEAN_MOTION_DOT":"0.00001547","EPOCH":"2022-07-02T20:34:45.047712","PERIAPSIS":"546.026","OBJECT_TYPE":"PAYLOAD","TLE_LINE1":"1 47868U 21021J   22183.85746583  .00001547  00000-0  12272-3 0  9995","MEAN_ANOMALY":"293.7275","ARG_OF_PERICENTER":"66.3893","MEAN_MOTION":"15.06402504","LAUNCH_DATE":"2021-03-14","MEAN_ELEMENT_THEORY":"SGP4","APOAPSIS":"548.385","MEAN_MOTION_DDOT":"0.0000000000000","OBJECT_NAME":"STARLINK-2323","NORAD_CAT_ID":"47868","RCS_SIZE":"LARGE","RA_OF_ASC_NODE":"133.3042","FILE":"3506790","REV_AT_EPOCH":"7371","CENTER_NAME":"EARTH","ELEMENT_SET_NO":"999","ECCENTRICITY":"0.00017030","BSTAR":"0.00012272000000"},{"PERIOD":"95.592","COUNTRY_CODE":"US","GP_ID":"207266208","TIME_SYSTEM":"UTC","SITE":"AFETR","EPHEMERIS_TYPE":"0","OBJECT_ID":"2021-021K","CLASSIFICATION_TYPE":"U","REF_FRAME":"TEME","SEMIMAJOR_AXIS":"6925.347","INCLINATION":"53.0523","DECAY_DATE":null,"PERIAPSIS":"545.931","EPOCH":"2022-07-02T07:54:25.992864","MEAN_MOTION_DOT":"0.00000671","TLE_LINE2":"2 47869  53.0523 185.6709 0001849  58.5424 301.5746 15.06400654 73513","OBJECT_TYPE":"PAYLOAD","ARG_OF_PERICENTER":"58.5424","MEAN_ANOMALY":"301.5746","TLE_LINE1":"1 47869U 21021K   22183.32946751  .00000671  00000-0  63961-4 0  9996","MEAN_ELEMENT_THEORY":"SGP4","LAUNCH_DATE":"2021-03-14","MEAN_MOTION":"15.06400654","APOAPSIS":"548.492","MEAN_MOTION_DDOT":"0.0000000000000","RCS_SIZE":"LARGE","OBJECT_NAME":"STARLINK-2324","NORAD_CAT_ID":"47869","ECCENTRICITY":"0.00018490","ELEMENT_SET_NO":"999","CENTER_NAME":"EARTH","FILE":"3506647","REV_AT_EPOCH":"7351","RA_OF_ASC_NODE":"185.6709","BSTAR":"0.00006396100000"},{"SEMIMAJOR_AXIS":"6925.349","CLASSIFICATION_TYPE":"U","REF_FRAME":"TEME","INCLINATION":"53.0544","DECAY_DATE":null,"PERIAPSIS":"545.940","TLE_LINE2":"2 47870  53.0544 209.9836 0001840  46.7850 313.3293 15.06399759 72972","MEAN_MOTION_DOT":"0.00000809","EPOCH":"2022-07-02T11:31:23.679552","OBJECT_TYPE":"PAYLOAD","PERIOD":"95.592","GP_ID":"207267458","COUNTRY_CODE":"US","TIME_SYSTEM":"UTC","SITE":"AFETR","OBJECT_ID":"2021-021L","EPHEMERIS_TYPE":"0","RCS_SIZE":"LARGE","NORAD_CAT_ID":"47870","OBJECT_NAME":"STARLINK-2326","ECCENTRICITY":"0.00018400","ELEMENT_SET_NO":"999","CENTER_NAME":"EARTH","REV_AT_EPOCH":"7297","FILE":"3506647","RA_OF_ASC_NODE":"209.9836","BSTAR":"0.00007321300000","ARG_OF_PERICENTER":"46.7850","TLE_LINE1":"1 47870U 21021L   22183.48013518  .00000809  00000-0  73213-4 0  9995","MEAN_ANOMALY":"313.3293","MEAN_ELEMENT_THEORY":"SGP4","LAUNCH_DATE":"2021-03-14","MEAN_MOTION":"15.06399759","APOAPSIS":"548.489","MEAN_MOTION_DDOT":"0.0000000000000"},{"APOAPSIS":"548.329","MEAN_MOTION_DDOT":"0.0000000000000","MEAN_MOTION":"15.06403194","LAUNCH_DATE":"2021-03-14","MEAN_ELEMENT_THEORY":"SGP4","TLE_LINE1":"1 47871U 21021M   22183.39214028  .00002355  00000-0  17693-3 0  9992","MEAN_ANOMALY":"301.8424","ARG_OF_PERICENTER":"58.2724","BSTAR":"0.00017693000000","RA_OF_ASC_NODE":"185.3966","FILE":"3506647","REV_AT_EPOCH":"7341","ECCENTRICITY":"0.00016250","ELEMENT_SET_NO":"999","CENTER_NAME":"EARTH","NORAD_CAT_ID":"47871","OBJECT_NAME":"STARLINK-2327","RCS_SIZE":"LARGE","OBJECT_ID":"2021-021M","EPHEMERIS_TYPE":"0","SITE":"AFETR","TIME_SYSTEM":"UTC","GP_ID":"207267209","COUNTRY_CODE":"US","PERIOD":"95.592","OBJECT_TYPE":"PAYLOAD","TLE_LINE2":"2 47871  53.0538 185.3966 0001625  58.2724 301.8424 15.06403194 73413","MEAN_MOTION_DOT":"0.00002355","EPOCH":"2022-07-02T09:24:40.920192","PERIAPSIS":"546.078","DECAY_DATE":null,"INCLINATION":"53.0538","SEMIMAJOR_AXIS":"6925.339","CLASSIFICATION_TYPE":"U","REF_FRAME":"TEME"}];
